#aV2007 10 24  0  0   .00000000      96 DD+AD WGS84 FIT  NGA
## 1450 259200.00000000   900.00000000 54397  .0000000000000
+   30     1  2  3  4  5  6  7  8  9 10 11 12 13 14 16 17 18
+         19 20 21 22 23 24 25 26 27 28 30 31 32  0  0  0  0
+          0  0  0  0  0  0  0  0  0  0  0  0  0  0  0  0  0
+          0  0  0  0  0  0  0  0  0  0  0  0  0  0  0  0  0
+          0  0  0  0  0  0  0  0  0  0  0  0  0  0  0  0  0
++         0  0  0  0  0  0  0  0  0  0  0  0  0  0  0  0  0
++         0  0  0  0  0  0  0  0  0  0  0  0  0  0  0  0  0
++         0  0  0  0  0  0  0  0  0  0  0  0  0  0  0  0  0
++         0  0  0  0  0  0  0  0  0  0  0  0  0  0  0  0  0
++         0  0  0  0  0  0  0  0  0  0  0  0  0  0  0  0  0
%c cc cc ccc ccc cccc cccc cccc cccc ccccc ccccc ccccc ccccc
%c cc cc ccc ccc cccc cccc cccc cccc ccccc ccccc ccccc ccccc
%f  0.0000000  0.000000000  0.00000000000  0.000000000000000
%f  0.0000000  0.000000000  0.00000000000  0.000000000000000
%i    0    0    0    0      0      0      0      0         0
%i    0    0    0    0      0      0      0      0         0
/*      NGA, ST. LOUIS,MO.                                  
/*   EPHEMERIS COMPUTED FROM  3 DAYS OF DATA                
/* CCCCCCCCCCCCCCCCCCCCCCCCCCCCCCCCCCCCCCCCCCCCCCCCCCCCCCCCC
/* CCCCCCCCCCCCCCCCCCCCCCCCCCCCCCCCCCCCCCCCCCCCCCCCCCCCCCCCC
*  2007 10 24  8 45   .00000000                                                 
P  1 -15713.769934 -16274.628043  14194.811535    161.822556                    
V  1  16806.866037   5295.136257  24979.458107       .028217                    
P  2  12990.345780  20144.442782 -11959.937074    145.955678                    
V  2    575.767822  15008.308610  26014.555180       .027719                    
P  3 -23294.310847 -11023.647870  -7363.295289    134.169427                    
V  3   9525.022472  -1243.017507 -28860.204911       .055331                    
P  4   5710.655371  25708.933753  -1221.333144    -16.971606                    
V  4  -3305.189837   2126.031961  31580.132281      -.038956                    
P  5  20675.822933 -15315.898266   6017.094078    491.981261                    
V  5  -3015.683028   8215.105688  30120.345202       .271131                    
P  6  15283.972197 -10155.789083 -19029.404131    231.503894                    
V  6  23147.271016   8594.342506  13844.154934      -.065423                    
P  7  12960.145594 -11598.020153 -19750.794299    -41.184729                    
V  7  24656.539211   8035.064062  11235.243724       .121213                    
P  8  -1020.719070  25350.699828  -7094.712493   -127.542830                    
V  8  -3736.779470  -8506.531938 -30756.502093      -.011725                    
P  9  14912.452858   -833.311975  21364.578312     93.500314                    
V  9   6433.920430  27829.204329  -3135.099988       .017504                    
P 10  14646.061412   6875.080941 -21236.960106   -118.737206                    
V 10 -20113.583780  17436.498581  -7956.180960      -.130268                    
P 11 -16096.474117   4315.527554  20570.878648     25.262690                    
V 11  -9594.317909 -24927.321819  -1948.669646       .003725                    
P 12  22290.078656  -9339.061784  11033.628059   -345.914678                    
V 12  -8840.073061  10993.478128  27450.408679      -.013107                    
P 13 -14127.565267   8970.297433 -20723.752807    216.115870                    
V 13 -24034.720508  -9920.424141  12174.050403       .027645                    
P 14  -4605.308025 -16169.536485  20682.611601   -324.728910                    
V 14  24580.063310   8323.301490  11940.306046       .024926                    
P 16 -10026.150288 -11315.340080 -21768.248243    121.270329                    
V 16  21205.323401 -17975.177304   -261.736641       .019835                    
P 17   3052.565772  16415.402988  20704.354457     50.848275                    
V 17 -25024.804646  -7865.896798   9795.631121      -.010831                    
P 18  16480.410999 -19525.438698   6708.744910   -229.556917                    
V 18   8572.373773  -2762.976005 -30184.566179       .020788                    
P 19 -25308.447175  -6922.432297   4700.951927      3.049121                    
V 19  -4351.174878  -4740.014656 -30846.997639       .021553                    
P 20 -22105.917059  12241.701984   8018.348380    127.401483                    
V 20   5676.057970  -9148.601417  29280.843403      -.006313                    
P 21   8016.494074 -19766.901724 -15294.227731     77.280773                    
V 21   6186.611735  19227.747618 -21987.170877      -.003787                    
P 22   5152.692626 -19803.261891  17073.464964    201.301523                    
V 22  17957.000771 -11841.733555 -19381.410560       .008759                    
P 23 -23049.740367   1775.947993 -13351.530103    302.834947                    
V 23 -15254.633608  -7099.780531  25296.589511       .035470                    
P 24  13312.703163  -9849.003360 -20631.871826     40.754234                    
V 24   4630.385143  26199.650989  -9145.409109       .030212                    
P 25  -9131.812528  15743.240986 -19035.690668    467.410735                    
V 25  -8440.772743 -23455.746519 -14915.991132       .069456                    
P 26  25243.859451   9097.284106    850.413243     72.224666                    
V 26   1030.715510   1819.527187 -32067.066667       .126020                    
P 27  -4880.565059  21070.976480 -14621.187226    143.254635                    
V 27  -7260.942107 -18555.640264 -23490.950745       .024394                    
P 28  -7766.124650  20364.252581  15281.602685     -9.144574                    
V 28 -15888.809297  10505.306941 -22932.127495      -.007731                    
P 30  19086.764404 -18389.554306   -290.063894     50.031331                    
V 30   2294.188420   2450.542189  31503.279413       .012975                    
P 31  -7629.530411 -25122.302206  -3531.138300      4.985173                    
V 31   1744.001784  -5192.700482  31469.388340      -.014507                    
P 32  -5020.187244 -14884.495352  21903.829451    112.273891                    
V 32  21612.507985 -15598.346623  -5632.169039       .145131                    
EOF
